[Satellite]
VERSION=1.1
NAME=ECHOSTAR 4
NICKNAME=ECHOSTAR 4
TLE1=1 25331U 98028A   11059.11203426 -.00000264  00000-0  10000-3 0  3784
TLE2=2 25331   2.4848  59.7213 0004713 271.9393 149.3785  1.00269451 47048
